[{"OBJECT_NAME":"ONEWEB-0599","OBJECT_ID":"2023-004R","EPOCH":"2026-03-09T22:16:37.236000","MEAN_MOTION":13.17648133,"ECCENTRICITY":0.00018792,"INCLINATION":87.9147,"RA_OF_ASC_NODE":25.5758,"ARG_OF_PERICENTER":87.9566,"MEAN_ANOMALY":272.1781,"EPHEMERIS_TYPE":0,"CLASSIFICATION_TYPE":"U","NORAD_CAT_ID":55155,"ELEMENT_SET_NO":999,"REV_AT_EPOCH":15441,"BSTAR":0.00019504244,"MEAN_MOTION_DOT":8.9e-7,"MEAN_MOTION_DDOT":0},{"OBJECT_NAME":"METEOR 3-4","OBJECT_ID":"1991-030A","EPOCH":"2026-03-09T22:37:43.485024","MEAN_MOTION":13.16698643,"ECCENTRICITY":0.00136956,"INCLINATION":82.5383,"RA_OF_ASC_NODE":254.5168,"ARG_OF_PERICENTER":49.9217,"MEAN_ANOMALY":59.7097,"EPHEMERIS_TYPE":0,"CLASSIFICATION_TYPE":"U","NORAD_CAT_ID":21232,"ELEMENT_SET_NO":999,"REV_AT_EPOCH":67604,"BSTAR":-0.00044279739,"MEAN_MOTION_DOT":-1.57e-6,"MEAN_MOTION_DDOT":0}]
